[{"OBJECT_NAME":"SL-8 R/B","OBJECT_ID":"1991-006B","EPOCH":"2026-04-18T03:20:10.455360","MEAN_MOTION":13.77502064,"ECCENTRICITY":0.0020958,"INCLINATION":82.941,"RA_OF_ASC_NODE":140.7106,"ARG_OF_PERICENTER":285.6162,"MEAN_ANOMALY":137.7396,"EPHEMERIS_TYPE":0,"CLASSIFICATION_TYPE":"U","NORAD_CAT_ID":21088,"ELEMENT_SET_NO":999,"REV_AT_EPOCH":76950,"BSTAR":0.00013683894,"MEAN_MOTION_DOT":1.51e-6,"MEAN_MOTION_DDOT":0},{"OBJECT_NAME":"OKEAN-3","OBJECT_ID":"1991-039A","EPOCH":"2026-04-18T05:46:41.700288","MEAN_MOTION":15.05021277,"ECCENTRICITY":0.00140026,"INCLINATION":82.5134,"RA_OF_ASC_NODE":298.51,"ARG_OF_PERICENTER":189.3896,"MEAN_ANOMALY":170.7071,"EPHEMERIS_TYPE":0,"CLASSIFICATION_TYPE":"U","NORAD_CAT_ID":21397,"ELEMENT_SET_NO":999,"REV_AT_EPOCH":87098,"BSTAR":9.5010388e-5,"MEAN_MOTION_DOT":1.379e-5,"MEAN_MOTION_DDOT":0},{"OBJECT_NAME":"COSMOS 2151","OBJECT_ID":"1991-042A","EPOCH":"2026-04-18T05:40:18.354720","MEAN_MOTION":15.00272604,"ECCENTRICITY":0.00107047,"INCLINATION":82.498,"RA_OF_ASC_NODE":45.5212,"ARG_OF_PERICENTER":289.3405,"MEAN_ANOMALY":70.6661,"EPHEMERIS_TYPE":0,"CLASSIFICATION_TYPE":"U","NORAD_CAT_ID":21422,"ELEMENT_SET_NO":999,"REV_AT_EPOCH":86912,"BSTAR":0.0001067486,"MEAN_MOTION_DOT":1.364e-5,"MEAN_MOTION_DDOT":0},{"OBJECT_NAME":"SL-14 R/B","OBJECT_ID":"1991-042B","EPOCH":"2026-04-18T04:36:55.016352","MEAN_MOTION":14.81866243,"ECCENTRICITY":0.00185244,"INCLINATION":82.4955,"RA_OF_ASC_NODE":183.1521,"ARG_OF_PERICENTER":109.948,"MEAN_ANOMALY":250.3732,"EPHEMERIS_TYPE":0,"CLASSIFICATION_TYPE":"U","NORAD_CAT_ID":21423,"ELEMENT_SET_NO":999,"REV_AT_EPOCH":85892,"BSTAR":2.7862533e-5,"MEAN_MOTION_DOT":2.45e-6,"MEAN_MOTION_DDOT":0},{"OBJECT_NAME":"ERS-1","OBJECT_ID":"1991-050A","EPOCH":"2026-04-18T00:57:46.615968","MEAN_MOTION":14.39478752,"ECCENTRICITY":0.00331267,"INCLINATION":98.7846,"RA_OF_ASC_NODE":127.259,"ARG_OF_PERICENTER":85.9387,"MEAN_ANOMALY":274.5585,"EPHEMERIS_TYPE":0,"CLASSIFICATION_TYPE":"U","NORAD_CAT_ID":21574,"ELEMENT_SET_NO":999,"REV_AT_EPOCH":82139,"BSTAR":7.7106519e-5,"MEAN_MOTION_DOT":1.96e-6,"MEAN_MOTION_DDOT":0},{"OBJECT_NAME":"ARIANE 40 R/B","OBJECT_ID":"1991-050F","EPOCH":"2026-04-18T03:16:07.606560","MEAN_MOTION":14.42921151,"ECCENTRICITY":0.00022102,"INCLINATION":98.1936,"RA_OF_ASC_NODE":158.8765,"ARG_OF_PERICENTER":336.7051,"MEAN_ANOMALY":23.4039,"EPHEMERIS_TYPE":0,"CLASSIFICATION_TYPE":"U","NORAD_CAT_ID":21610,"ELEMENT_SET_NO":999,"REV_AT_EPOCH":82468,"BSTAR":5.9963871e-5,"MEAN_MOTION_DOT":1.59e-6,"MEAN_MOTION_DDOT":0},{"OBJECT_NAME":"INTERCOSMOS 25","OBJECT_ID":"1991-086A","EPOCH":"2026-04-18T04:40:28.932384","MEAN_MOTION":12.1211915,"ECCENTRICITY":0.14858526,"INCLINATION":82.599,"RA_OF_ASC_NODE":286.1162,"ARG_OF_PERICENTER":31.7994,"MEAN_ANOMALY":336.4671,"EPHEMERIS_TYPE":0,"CLASSIFICATION_TYPE":"U","NORAD_CAT_ID":21819,"ELEMENT_SET_NO":999,"REV_AT_EPOCH":50147,"BSTAR":0.00016889969,"MEAN_MOTION_DOT":8.85e-6,"MEAN_MOTION_DDOT":0},{"OBJECT_NAME":"SL-8 R/B","OBJECT_ID":"1992-008B","EPOCH":"2026-04-18T03:46:21.482976","MEAN_MOTION":13.75970085,"ECCENTRICITY":0.00350889,"INCLINATION":82.9264,"RA_OF_ASC_NODE":238.416,"ARG_OF_PERICENTER":26.5336,"MEAN_ANOMALY":147.281,"EPHEMERIS_TYPE":0,"CLASSIFICATION_TYPE":"U","NORAD_CAT_ID":21876,"ELEMENT_SET_NO":999,"REV_AT_EPOCH":71484,"BSTAR":-6.289775e-6,"MEAN_MOTION_DOT":9.0e-8,"MEAN_MOTION_DDOT":0},{"OBJECT_NAME":"SL-8 R/B","OBJECT_ID":"1992-020B","EPOCH":"2026-04-18T07:47:52.088352","MEAN_MOTION":13.75549274,"ECCENTRICITY":0.00289017,"INCLINATION":82.9272,"RA_OF_ASC_NODE":124.3258,"ARG_OF_PERICENTER":184.3378,"MEAN_ANOMALY":186.4371,"EPHEMERIS_TYPE":0,"CLASSIFICATION_TYPE":"U","NORAD_CAT_ID":21938,"ELEMENT_SET_NO":999,"REV_AT_EPOCH":70658,"BSTAR":-6.8979294e-5,"MEAN_MOTION_DOT":-5.1e-7,"MEAN_MOTION_DDOT":0},{"OBJECT_NAME":"USA 81","OBJECT_ID":"1992-023A","EPOCH":"2026-04-18T06:25:50.994048","MEAN_MOTION":14.32380497,"ECCENTRICITY":0.00012197,"INCLINATION":85.0035,"RA_OF_ASC_NODE":108.5941,"ARG_OF_PERICENTER":89.9203,"MEAN_ANOMALY":270.2129,"EPHEMERIS_TYPE":0,"CLASSIFICATION_TYPE":"U","NORAD_CAT_ID":21949,"ELEMENT_SET_NO":999,"REV_AT_EPOCH":10045,"BSTAR":3.6510849e-5,"MEAN_MOTION_DOT":1.19e-6,"MEAN_MOTION_DDOT":0},{"OBJECT_NAME":"COSMOS 2219","OBJECT_ID":"1992-076A","EPOCH":"2026-04-18T06:37:11.403552","MEAN_MOTION":14.14090334,"ECCENTRICITY":0.0017217,"INCLINATION":71.0585,"RA_OF_ASC_NODE":295.3162,"ARG_OF_PERICENTER":144.8926,"MEAN_ANOMALY":215.3335,"EPHEMERIS_TYPE":0,"CLASSIFICATION_TYPE":"U","NORAD_CAT_ID":22219,"ELEMENT_SET_NO":999,"REV_AT_EPOCH":72397,"BSTAR":0.00013992687,"MEAN_MOTION_DOT":2.2e-6,"MEAN_MOTION_DDOT":0},{"OBJECT_NAME":"SL-16 R/B","OBJECT_ID":"1992-076B","EPOCH":"2026-04-18T07:02:11.707584","MEAN_MOTION":14.16867048,"ECCENTRICITY":0.00116509,"INCLINATION":70.998,"RA_OF_ASC_NODE":104.9501,"ARG_OF_PERICENTER":24.9716,"MEAN_ANOMALY":346.4909,"EPHEMERIS_TYPE":0,"CLASSIFICATION_TYPE":"U","NORAD_CAT_ID":22220,"ELEMENT_SET_NO":999,"REV_AT_EPOCH":72744,"BSTAR":1.2691066e-5,"MEAN_MOTION_DOT":-2.2e-7,"MEAN_MOTION_DDOT":0},{"OBJECT_NAME":"COSMOS 2221","OBJECT_ID":"1992-080A","EPOCH":"2026-04-18T07:02:46.225248","MEAN_MOTION":14.96366654,"ECCENTRICITY":0.00154338,"INCLINATION":82.5033,"RA_OF_ASC_NODE":241.1341,"ARG_OF_PERICENTER":62.8629,"MEAN_ANOMALY":297.4165,"EPHEMERIS_TYPE":0,"CLASSIFICATION_TYPE":"U","NORAD_CAT_ID":22236,"ELEMENT_SET_NO":999,"REV_AT_EPOCH":78671,"BSTAR":0.0001068788,"MEAN_MOTION_DOT":1.239e-5,"MEAN_MOTION_DDOT":0},{"OBJECT_NAME":"SL-16 R/B","OBJECT_ID":"1992-093B","EPOCH":"2026-04-18T04:09:35.527104","MEAN_MOTION":14.1545358,"ECCENTRICITY":0.0006325,"INCLINATION":71.0199,"RA_OF_ASC_NODE":281.378,"ARG_OF_PERICENTER":253.5724,"MEAN_ANOMALY":106.4704,"EPHEMERIS_TYPE":0,"CLASSIFICATION_TYPE":"U","NORAD_CAT_ID":22285,"ELEMENT_SET_NO":999,"REV_AT_EPOCH":71874,"BSTAR":3.9380862e-5,"MEAN_MOTION_DOT":2.9e-7,"MEAN_MOTION_DDOT":0},{"OBJECT_NAME":"COSMOS 2228","OBJECT_ID":"1992-094A","EPOCH":"2026-04-18T05:11:44.409408","MEAN_MOTION":14.97386939,"ECCENTRICITY":0.00184409,"INCLINATION":82.5205,"RA_OF_ASC_NODE":199.4693,"ARG_OF_PERICENTER":164.6348,"MEAN_ANOMALY":195.5438,"EPHEMERIS_TYPE":0,"CLASSIFICATION_TYPE":"U","NORAD_CAT_ID":22286,"ELEMENT_SET_NO":999,"REV_AT_EPOCH":78197,"BSTAR":0.00010760097,"MEAN_MOTION_DOT":1.281e-5,"MEAN_MOTION_DDOT":0},{"OBJECT_NAME":"SL-16 R/B","OBJECT_ID":"1993-016B","EPOCH":"2026-04-18T03:31:44.230944","MEAN_MOTION":14.15313399,"ECCENTRICITY":0.00127609,"INCLINATION":71.006,"RA_OF_ASC_NODE":132.3127,"ARG_OF_PERICENTER":264.8231,"MEAN_ANOMALY":95.1436,"EPHEMERIS_TYPE":0,"CLASSIFICATION_TYPE":"U","NORAD_CAT_ID":22566,"ELEMENT_SET_NO":999,"REV_AT_EPOCH":70775,"BSTAR":-6.4957944e-5,"MEAN_MOTION_DOT":-1.74e-6,"MEAN_MOTION_DDOT":0},{"OBJECT_NAME":"COSMOS 2242","OBJECT_ID":"1993-024A","EPOCH":"2026-04-18T01:58:30.057312","MEAN_MOTION":14.96720126,"ECCENTRICITY":0.00166644,"INCLINATION":82.5195,"RA_OF_ASC_NODE":229.0301,"ARG_OF_PERICENTER":168.143,"MEAN_ANOMALY":192.0188,"EPHEMERIS_TYPE":0,"CLASSIFICATION_TYPE":"U","NORAD_CAT_ID":22626,"ELEMENT_SET_NO":999,"REV_AT_EPOCH":78628,"BSTAR":0.00011392887,"MEAN_MOTION_DOT":1.331e-5,"MEAN_MOTION_DDOT":0}]
