SL-8 R/B                
1 21088U 91006B   26108.13900990  .00000151  00000+0  13684-3 0  9994
2 21088  82.9410 140.7106 0020958 285.6162 137.7396 13.77502064769506
OKEAN-3                 
1 21397U 91039A   26108.24076042  .00001379  00000+0  95010-4 0  9994
2 21397  82.5134 298.5100 0014002 189.3896 170.7071 15.05021277870988
COSMOS 2151             
1 21422U 91042A   26108.23632355  .00001364  00000+0  10675-3 0  9998
2 21422  82.4980  45.5212 0010704 289.3405  70.6661 15.00272604869125
SL-14 R/B               
1 21423U 91042B   26108.19230343  .00000245  00000+0  27863-4 0  9990
2 21423  82.4955 183.1521 0018524 109.9480 250.3732 14.81866243858926
ERS-1                   
1 21574U 91050A   26108.04012287  .00000196  00000+0  77107-4 0  9996
2 21574  98.7846 127.2590 0033126  85.9387 274.5585 14.39478752821393
ARIANE 40 R/B           
1 21610U 91050F   26108.13619915  .00000159  00000+0  59964-4 0  9998
2 21610  98.1936 158.8765 0002210 336.7051  23.4039 14.42921151824687
INTERCOSMOS 25          
1 21819U 91086A   26108.19477931  .00000885  00000+0  16890-3 0  9990
2 21819  82.5990 286.1162 1485852  31.7994 336.4671 12.12119150501478
SL-8 R/B                
1 21876U 92008B   26108.15719309  .00000009  00000+0 -62898-5 0  9992
2 21876  82.9264 238.4160 0035088  26.5336 147.2810 13.75970085714842
SL-8 R/B                
1 21938U 92020B   26108.32490843 -.00000051  00000+0 -68979-4 0  9996
2 21938  82.9272 124.3258 0028901 184.3378 186.4371 13.75549274706587
USA 81                  
1 21949U 92023A   26108.26795132  .00000119  00000+0  36511-4 0  9993
2 21949  85.0035 108.5941 0001219  89.9203 270.2129 14.32380497100454
COSMOS 2219             
1 22219U 92076A   26108.27582643  .00000220  00000+0  13993-3 0  9995
2 22219  71.0585 295.3162 0017217 144.8926 215.3335 14.14090334723973
SL-16 R/B               
1 22220U 92076B   26108.29319106 -.00000022  00000+0  12691-4 0  9997
2 22220  70.9980 104.9501 0011650  24.9716 346.4909 14.16867048727449
COSMOS 2221             
1 22236U 92080A   26108.29359057  .00001239  00000+0  10688-3 0  9991
2 22236  82.5033 241.1341 0015433  62.8629 297.4165 14.96366654786716
SL-16 R/B               
1 22285U 92093B   26108.17332786  .00000029  00000+0  39381-4 0  9994
2 22285  71.0199 281.3780 0006325 253.5724 106.4704 14.15453580718746
COSMOS 2228             
1 22286U 92094A   26108.21648622  .00001281  00000+0  10760-3 0  9990
2 22286  82.5205 199.4693 0018440 164.6348 195.5438 14.97386939781970
SL-16 R/B               
1 22566U 93016B   26108.14703971 -.00000174  00000+0 -64958-4 0  9998
2 22566  71.0060 132.3127 0012760 264.8231  95.1436 14.15313399707751
COSMOS 2242             
1 22626U 93024A   26108.08229233  .00001331  00000+0  11393-3 0  9999
2 22626  82.5195 229.0301 0016664 168.1430 192.0188 14.96720126786281
